{
  "type": "FeatureCollection",
  "features": [
    {
      "type": "Feature",
      "properties": {
        "norad_id": 57400,
        "name": "TIANMU-1 08",
        "group": "weather",
        "lat": 53.10387042708082,
        "lon": -135.871202811926,
        "alt_km": 472.7018387069511,
        "timestamp": "2025-12-10T14:53:36.769053+00:00",
        "meta_object_name": "TIANMU-1 08",
        "meta_object_id": "2023-101B",
        "meta_epoch": "2025-12-10T06:29:06.873216",
        "meta_mean_motion": 15.2799654,
        "meta_eccentricity": 0.00075544,
        "meta_inclination": 97.2866,
        "meta_ra_of_asc_node": 33.9726,
        "meta_arg_of_pericenter": 90.636,
        "meta_mean_anomaly": 269.5745,
        "meta_ephemeris_type": 0,
        "meta_classification_type": "U",
        "meta_norad_cat_id": 57400,
        "meta_element_set_no": 999,
        "meta_rev_at_epoch": 13277,
        "meta_bstar": 0.00036724817,
        "meta_mean_motion_dot": 9.969e-05,
        "meta_mean_motion_ddot": 0,
        "tle_line1": "1 57400U 23101B   25344.27021844  .00009969  00000+0  36725-3 0  9997",
        "tle_line2": "2 57400  97.2866  33.9726 0007554  90.6360 269.5745 15.27996540132777"
      },
      "geometry": {
        "type": "Point",
        "coordinates": [
          -135.871202811926,
          53.10387042708082
        ]
      }
    },
    {
      "type": "Feature",
      "properties": {
        "norad_id": 57401,
        "name": "TIANMU-1 09",
        "group": "weather",
        "lat": -18.613801699912166,
        "lon": -148.63873315161842,
        "alt_km": 488.4125081541906,
        "timestamp": "2025-12-10T14:53:36.769062+00:00",
        "meta_object_name": "TIANMU-1 09",
        "meta_object_id": "2023-101C",
        "meta_epoch": "2025-12-10T07:44:27.011904",
        "meta_mean_motion": 15.28025136,
        "meta_eccentricity": 0.0006825,
        "meta_inclination": 97.2822,
        "meta_ra_of_asc_node": 33.5385,
        "meta_arg_of_pericenter": 90.3638,
        "meta_mean_anomaly": 269.8384,
        "meta_ephemeris_type": 0,
        "meta_classification_type": "U",
        "meta_norad_cat_id": 57401,
        "meta_element_set_no": 999,
        "meta_rev_at_epoch": 13278,
        "meta_bstar": 0.00038774229,
        "meta_mean_motion_dot": 0.00010538,
        "meta_mean_motion_ddot": 0,
        "tle_line1": "1 57401U 23101C   25344.32253486  .00010538  00000+0  38774-3 0  9993",
        "tle_line2": "2 57401  97.2822  33.5385 0006825  90.3638 269.8384 15.28025136132780"
      },
      "geometry": {
        "type": "Point",
        "coordinates": [
          -148.63873315161842,
          -18.613801699912166
        ]
      }
    },
    {
      "type": "Feature",
      "properties": {
        "norad_id": 57402,
        "name": "TIANMU-1 10",
        "group": "weather",
        "lat": 10.26658926354713,
        "lon": 33.348571743982845,
        "alt_km": 482.2540840934944,
        "timestamp": "2025-12-10T14:53:36.769071+00:00",
        "meta_object_name": "TIANMU-1 10",
        "meta_object_id": "2023-101D",
        "meta_epoch": "2025-12-10T06:59:24.038016",
        "meta_mean_motion": 15.2801584,
        "meta_eccentricity": 0.00085567,
        "meta_inclination": 97.2902,
        "meta_ra_of_asc_node": 34.3551,
        "meta_arg_of_pericenter": 90.5233,
        "meta_mean_anomaly": 269.6987,
        "meta_ephemeris_type": 0,
        "meta_classification_type": "U",
        "meta_norad_cat_id": 57402,
        "meta_element_set_no": 999,
        "meta_rev_at_epoch": 13277,
        "meta_bstar": 0.00042787824,
        "meta_mean_motion_dot": 0.00011639,
        "meta_mean_motion_ddot": 0,
        "tle_line1": "1 57402U 23101D   25344.29125044  .00011639  00000+0  42788-3 0  9991",
        "tle_line2": "2 57402  97.2902  34.3551 0008556  90.5233 269.6987 15.28015840132777"
      },
      "geometry": {
        "type": "Point",
        "coordinates": [
          33.348571743982845,
          10.26658926354713
        ]
      }
    },
    {
      "type": "Feature",
      "properties": {
        "norad_id": 57490,
        "name": "FENGYUN 3F",
        "group": "weather",
        "lat": 13.679477604128579,
        "lon": 50.81009611415321,
        "alt_km": 826.6267194540724,
        "timestamp": "2025-12-10T14:53:36.769670+00:00",
        "meta_object_name": "FENGYUN 3F",
        "meta_object_id": "2023-111A",
        "meta_epoch": "2025-12-10T06:22:20.781120",
        "meta_mean_motion": 14.19892558,
        "meta_eccentricity": 6.495e-05,
        "meta_inclination": 98.7087,
        "meta_ra_of_asc_node": 52.5988,
        "meta_arg_of_pericenter": 97.1767,
        "meta_mean_anomaly": 262.9483,
        "meta_ephemeris_type": 0,
        "meta_classification_type": "U",
        "meta_norad_cat_id": 57490,
        "meta_element_set_no": 999,
        "meta_rev_at_epoch": 12205,
        "meta_bstar": 8.5444832e-05,
        "meta_mean_motion_dot": 1.38e-06,
        "meta_mean_motion_ddot": 0,
        "tle_line1": "1 57490U 23111A   25344.26551830  .00000138  00000+0  85445-4 0  9992",
        "tle_line2": "2 57490  98.7087  52.5988 0000649  97.1767 262.9483 14.19892558122055"
      },
      "geometry": {
        "type": "Point",
        "coordinates": [
          50.81009611415321,
          13.679477604128579
        ]
      }
    },
    {
      "type": "Feature",
      "properties": {
        "norad_id": 58584,
        "name": "ARKTIKA-M 2",
        "group": "weather",
        "lat": 61.587861341145505,
        "lon": -73.89242803369902,
        "alt_km": 36451.6880984403,
        "timestamp": "2025-12-10T14:53:36.769693+00:00",
        "meta_object_name": "ARKTIKA-M 2",
        "meta_object_id": "2023-198A",
        "meta_epoch": "2025-12-08T20:10:13.977120",
        "meta_mean_motion": 2.0060476,
        "meta_eccentricity": 0.68646991,
        "meta_inclination": 63.2247,
        "meta_ra_of_asc_node": 175.3152,
        "meta_arg_of_pericenter": 268.1185,
        "meta_mean_anomaly": 18.8267,
        "meta_ephemeris_type": 0,
        "meta_classification_type": "U",
        "meta_norad_cat_id": 58584,
        "meta_element_set_no": 999,
        "meta_rev_at_epoch": 1450,
        "meta_bstar": 0,
        "meta_mean_motion_dot": 1.66e-06,
        "meta_mean_motion_ddot": 0,
        "tle_line1": "1 58584U 23198A   25342.84043955  .00000166  00000+0  00000+0 0  9998",
        "tle_line2": "2 58584  63.2247 175.3152 6864699 268.1185  18.8267  2.00604760 14506"
      },
      "geometry": {
        "type": "Point",
        "coordinates": [
          -73.89242803369902,
          61.587861341145505
        ]
      }
    },
    {
      "type": "Feature",
      "properties": {
        "norad_id": 58645,
        "name": "TIANMU-1 11",
        "group": "weather",
        "lat": -35.79371396303662,
        "lon": 178.93225892745355,
        "alt_km": 499.7727444055081,
        "timestamp": "2025-12-10T14:53:36.769711+00:00",
        "meta_object_name": "TIANMU-1 11",
        "meta_object_id": "2023-205A",
        "meta_epoch": "2025-12-10T07:38:49.830720",
        "meta_mean_motion": 15.24550875,
        "meta_eccentricity": 0.00081083,
        "meta_inclination": 97.361,
        "meta_ra_of_asc_node": 3.9842,
        "meta_arg_of_pericenter": 320.3597,
        "meta_mean_anomaly": 39.7047,
        "meta_ephemeris_type": 0,
        "meta_classification_type": "U",
        "meta_norad_cat_id": 58645,
        "meta_element_set_no": 999,
        "meta_rev_at_epoch": 10872,
        "meta_bstar": 0.00034481007,
        "meta_mean_motion_dot": 8.428e-05,
        "meta_mean_motion_ddot": 0,
        "tle_line1": "1 58645U 23205A   25344.31863230  .00008428  00000+0  34481-3 0  9998",
        "tle_line2": "2 58645  97.3610   3.9842 0008108 320.3597  39.7047 15.24550875108728"
      },
      "geometry": {
        "type": "Point",
        "coordinates": [
          178.93225892745355,
          -35.79371396303662
        ]
      }
    },
    {
      "type": "Feature",
      "properties": {
        "norad_id": 58646,
        "name": "TIANMU-1 12",
        "group": "weather",
        "lat": 68.03224738768685,
        "lon": -14.601934783964847,
        "alt_km": 488.42626424667924,
        "timestamp": "2025-12-10T14:53:36.769734+00:00",
        "meta_object_name": "TIANMU-1 12",
        "meta_object_id": "2023-205B",
        "meta_epoch": "2025-12-10T06:42:50.580576",
        "meta_mean_motion": 15.24431488,
        "meta_eccentricity": 0.00060135,
        "meta_inclination": 97.3597,
        "meta_ra_of_asc_node": 3.7523,
        "meta_arg_of_pericenter": 302.4451,
        "meta_mean_anomaly": 57.6204,
        "meta_ephemeris_type": 0,
        "meta_classification_type": "U",
        "meta_norad_cat_id": 58646,
        "meta_element_set_no": 999,
        "meta_rev_at_epoch": 10870,
        "meta_bstar": 0.00039248112,
        "meta_mean_motion_dot": 9.567e-05,
        "meta_mean_motion_ddot": 0,
        "tle_line1": "1 58646U 23205B   25344.27975209  .00009567  00000+0  39248-3 0  9995",
        "tle_line2": "2 58646  97.3597   3.7523 0006013 302.4451  57.6204 15.24431488108700"
      },
      "geometry": {
        "type": "Point",
        "coordinates": [
          -14.601934783964847,
          68.03224738768685
        ]
      }
    }
  ]
}